ONEWEB-0258             
1 48976U 21060K   25217.48897664  .00000072  00000+0  15350-3 0  9997
2 48976  87.9038 291.7239 0001933  97.7471 262.3880 13.16593255198057
ONEWEB-0259             
1 48977U 21060L   25217.55862444  .00000022  00000+0  23873-4 0  9999
2 48977  87.9041 291.6945 0001966  93.1982 266.9374 13.16596046198091
ONEWEB-0260             
1 48978U 21060M   25217.47392399  .00000006  00000+0 -17658-4 0  9995
2 48978  87.9035 291.7369 0002520 101.3151 258.8263 13.16593124198061
ONEWEB-0261             
1 48979U 21060N   25217.44384697  .00000033  00000+0  52650-4 0  9995
2 48979  87.9042 291.7445 0002310  88.6023 271.5373 13.16594323198119
ONEWEB-0262             
1 48980U 21060P   25217.50006635  .00000219  00000+0  53840-3 0  9994
2 48980  87.9042 291.6955 0001811  89.8033 270.3306 13.16594187198082
ONEWEB-0263             
1 48981U 21060Q   25217.45573478  .00000044  00000+0  80449-4 0  9995
2 48981  87.9040 291.7280 0002116  84.3588 275.7784 13.16595048198049
ONEWEB-0264             
1 48982U 21060R   25217.49292755  .00000088  00000+0  19566-3 0  9995
2 48982  87.9036 291.7258 0002064  95.0418 265.0948 13.16592974198053
ONEWEB-0266             
1 48984U 21060T   25217.43831062  .00000085  00000+0  18934-3 0  9996
2 48984  87.9043 291.7117 0001814  98.3348 261.7989 13.16593722198035
